KUIPER-00265            
1 67159U 25301AC  26190.22493565  .00001638  00000+0  24378-3 0  9997
2 67159  51.9020 268.2143 0000583 101.7124 258.3904 14.79931270 31485
KUIPER-00159            
1 67764U 26030A   26191.25002315  .00042548  00000+0  13138-2 0  9998
2 67764  51.8868 346.7789 0005929 114.9508 295.4014 15.33116246  4680
KUIPER-00160            
1 67765U 26030B   26190.71740184  .00020102  00000+0  54728-3 0  9995
2 67765  51.8799 349.2747 0007256 118.7619 241.4098 15.37470908 23862
KUIPER-00177            
1 67766U 26030C   26189.76664464  .00002306  00000+0  33151-3 0  9998
2 67766  51.9003  37.7215 0000672 109.8362 250.2673 14.79918458 23108
KUIPER-00178            
1 67767U 26030D   26189.86793616  .00000845  00000+0  13981-3 0  9997
2 67767  51.8995  37.2568 0000891 109.4967 250.6092 14.79923391 23127
KUIPER-00180            
1 67768U 26030E   26189.94085854  .00002151  00000+0  31120-3 0  9992
2 67768  51.8985  31.9392 0000756 113.0002 247.1040 14.79920755 23208
KUIPER-00197            
1 67769U 26030F   26190.50267320  .00002181  00000+0  31501-3 0  9993
2 67769  51.8994   9.4668 0000610 151.4746 208.6250 14.79925511 23564
KUIPER-00198            
1 67770U 26030G   26189.84763094  .00005115  00000+0  69917-3 0  9991
2 67770  51.8991  24.8477 0000452 110.2346 249.8665 14.79945605 23298
KUIPER-00199            
1 67771U 26030H   26190.73999121  .00016406  00000+0  45626-3 0  9990
2 67771  51.8818 350.8907 0010517 133.4763 226.7099 15.36933495 23844
KUIPER-00200            
1 67772U 26030J   26191.25002315  .00002238  00000+0  32310-3 0  9993
2 67772  51.8987   3.6869 0001413  67.7319 122.8391 14.79854956  5631
KUIPER-00203            
1 67773U 26030K   26189.96384152  .00002210  00000+0  31883-3 0  9995
2 67773  51.9057  41.8916 0000722 114.5362 245.5676 14.79927860 23060
KUIPER-00205            
1 67774U 26030L   26190.94697716  .00002267  00000+0  32596-3 0  9993
2 67774  51.9006   2.4780 0000963 114.1584 245.9479 14.79975857 23701
KUIPER-00208            
1 67775U 26030M   26191.00353934  .00001452  00000+0  23709-3 0  9994
2 67775  51.8990  29.5847 0008179 104.4685 255.7184 14.76513230 23328
KUIPER-00209            
1 67776U 26030N   26189.97463445  .00002099  00000+0  30432-3 0  9996
2 67776  51.9003  31.8793 0000813 117.1374 242.9671 14.79926080 23204
KUIPER-00213            
1 67777U 26030P   26191.15909607  .00002211  00000+0  31889-3 0  9998
2 67777  51.8967  24.1243 0000703 106.3602 253.7438 14.79936285 23412
KUIPER-00214            
1 67778U 26030Q   26191.26310560  .00002302  00000+0  33086-3 0  9997
2 67778  51.9019  21.1724 0000553 102.8599 257.2425 14.79927063 23466
